{
  "type": "FeatureCollection",
  "features": [
    {
      "type": "Feature",
      "properties": {
        "norad_id": 27954,
        "name": "GALAXY 13 (HORIZONS-1)",
        "group": "intelsat",
        "lat": 0.6668135162994313,
        "lon": -142.64456313235402,
        "alt_km": 35778.15736757303,
        "timestamp": "2025-12-04T19:33:59.298592+00:00",
        "meta_object_name": "GALAXY 13 (HORIZONS-1)",
        "meta_object_id": "2003-044A",
        "meta_epoch": "2025-12-04T06:09:52.133760",
        "meta_mean_motion": 1.00272905,
        "meta_eccentricity": 0.00020669,
        "meta_inclination": 0.9136,
        "meta_ra_of_asc_node": 86.5773,
        "meta_arg_of_pericenter": 162.365,
        "meta_mean_anomaly": 126.8573,
        "meta_ephemeris_type": 0,
        "meta_classification_type": "U",
        "meta_norad_cat_id": 27954,
        "meta_element_set_no": 999,
        "meta_rev_at_epoch": 4461,
        "meta_bstar": 0,
        "meta_mean_motion_dot": 1.48e-06,
        "meta_mean_motion_ddot": 0,
        "tle_line1": "1 27954U 03044A   25338.25685340  .00000148  00000+0  00000+0 0  9993",
        "tle_line2": "2 27954   0.9136  86.5773 0002066 162.3650 126.8573  1.00272905 44614"
      },
      "geometry": {
        "type": "Point",
        "coordinates": [
          -142.64456313235402,
          0.6668135162994313
        ]
      }
    },
    {
      "type": "Feature",
      "properties": {
        "norad_id": 28358,
        "name": "INTELSAT 10-02",
        "group": "intelsat",
        "lat": -0.009403446300918394,
        "lon": 6.3788878222346055,
        "alt_km": 35786.283074414205,
        "timestamp": "2025-12-04T19:33:59.298602+00:00",
        "meta_object_name": "INTELSAT 10-02",
        "meta_object_id": "2004-022A",
        "meta_epoch": "2025-12-04T05:09:41.933088",
        "meta_mean_motion": 1.00270514,
        "meta_eccentricity": 0.00010974,
        "meta_inclination": 0.039,
        "meta_ra_of_asc_node": 80.5957,
        "meta_arg_of_pericenter": 197.6541,
        "meta_mean_anomaly": 231.4749,
        "meta_ephemeris_type": 0,
        "meta_classification_type": "U",
        "meta_norad_cat_id": 28358,
        "meta_element_set_no": 999,
        "meta_rev_at_epoch": 7860,
        "meta_bstar": 0,
        "meta_mean_motion_dot": 5e-08,
        "meta_mean_motion_ddot": 0,
        "tle_line1": "1 28358U 04022A   25338.21506867  .00000005  00000+0  00000+0 0  9993",
        "tle_line2": "2 28358   0.0390  80.5957 0001097 197.6541 231.4749  1.00270514 78605"
      },
      "geometry": {
        "type": "Point",
        "coordinates": [
          6.3788878222346055,
          -0.009403446300918394
        ]
      }
    },
    {
      "type": "Feature",
      "properties": {
        "norad_id": 28626,
        "name": "XM-3 (RHYTHM)",
        "group": "intelsat",
        "lat": 0.14066393204173797,
        "lon": 159.2715812469976,
        "alt_km": 36163.4755960451,
        "timestamp": "2025-12-04T19:33:59.298614+00:00",
        "meta_object_name": "XM-3 (RHYTHM)",
        "meta_object_id": "2005-008A",
        "meta_epoch": "2025-12-04T05:54:00.188064",
        "meta_mean_motion": 0.98954927,
        "meta_eccentricity": 9.775e-05,
        "meta_inclination": 0.1512,
        "meta_ra_of_asc_node": 80.896,
        "meta_arg_of_pericenter": 261.3261,
        "meta_mean_anomaly": 334.211,
        "meta_ephemeris_type": 0,
        "meta_classification_type": "U",
        "meta_norad_cat_id": 28626,
        "meta_element_set_no": 999,
        "meta_rev_at_epoch": 4066,
        "meta_bstar": 0,
        "meta_mean_motion_dot": -2.53e-06,
        "meta_mean_motion_ddot": 0,
        "tle_line1": "1 28626U 05008A   25338.24583551 -.00000253  00000+0  00000+0 0  9990",
        "tle_line2": "2 28626   0.1512  80.8960 0000977 261.3261 334.2110  0.98954927 40663"
      },
      "geometry": {
        "type": "Point",
        "coordinates": [
          159.2715812469976,
          0.14066393204173797
        ]
      }
    },
    {
      "type": "Feature",
      "properties": {
        "norad_id": 28659,
        "name": "DIRECTV 8",
        "group": "intelsat",
        "lat": -0.04125425958759715,
        "lon": -111.67085438898623,
        "alt_km": 35770.214020284744,
        "timestamp": "2025-12-04T19:33:59.298624+00:00",
        "meta_object_name": "DIRECTV 8",
        "meta_object_id": "2005-019A",
        "meta_epoch": "2025-12-04T06:18:43.784928",
        "meta_mean_motion": 1.00277091,
        "meta_eccentricity": 0.00033893,
        "meta_inclination": 0.017,
        "meta_ra_of_asc_node": 320.346,
        "meta_arg_of_pericenter": 286.4136,
        "meta_mean_anomaly": 162.2188,
        "meta_ephemeris_type": 0,
        "meta_classification_type": "U",
        "meta_norad_cat_id": 28659,
        "meta_element_set_no": 999,
        "meta_rev_at_epoch": 7511,
        "meta_bstar": 0,
        "meta_mean_motion_dot": 1.6e-07,
        "meta_mean_motion_ddot": 0,
        "tle_line1": "1 28659U 05019A   25338.26300677  .00000016  00000+0  00000+0 0  9992",
        "tle_line2": "2 28659   0.0170 320.3460 0003389 286.4136 162.2188  1.00277091 75110"
      },
      "geometry": {
        "type": "Point",
        "coordinates": [
          -111.67085438898623,
          -0.04125425958759715
        ]
      }
    },
    {
      "type": "Feature",
      "properties": {
        "norad_id": 28702,
        "name": "GALAXY 28 (G-28)",
        "group": "intelsat",
        "lat": -0.8540429248802867,
        "lon": -81.33527969602771,
        "alt_km": 35776.07623547385,
        "timestamp": "2025-12-04T19:33:59.298635+00:00",
        "meta_object_name": "GALAXY 28 (G-28)",
        "meta_object_id": "2005-022A",
        "meta_epoch": "2025-12-04T06:27:20.460384",
        "meta_mean_motion": 1.00272167,
        "meta_eccentricity": 0.00026418,
        "meta_inclination": 2.797,
        "meta_ra_of_asc_node": 81.3802,
        "meta_arg_of_pericenter": 171.0874,
        "meta_mean_anomaly": 189.0166,
        "meta_ephemeris_type": 0,
        "meta_classification_type": "U",
        "meta_norad_cat_id": 28702,
        "meta_element_set_no": 999,
        "meta_rev_at_epoch": 5002,
        "meta_bstar": 0,
        "meta_mean_motion_dot": -1.73e-06,
        "meta_mean_motion_ddot": 0,
        "tle_line1": "1 28702U 05022A   25338.26898681 -.00000173  00000+0  00000+0 0  9997",
        "tle_line2": "2 28702   2.7970  81.3802 0002641 171.0874 189.0166  1.00272167 50023"
      },
      "geometry": {
        "type": "Point",
        "coordinates": [
          -81.33527969602771,
          -0.8540429248802867
        ]
      }
    },
    {
      "type": "Feature",
      "properties": {
        "norad_id": 29236,
        "name": "GALAXY 16 (G-16)",
        "group": "intelsat",
        "lat": -0.0058819527362753265,
        "lon": -91.64158058651371,
        "alt_km": 35774.04345193644,
        "timestamp": "2025-12-04T19:33:59.298646+00:00",
        "meta_object_name": "GALAXY 16 (G-16)",
        "meta_object_id": "2006-023A",
        "meta_epoch": "2025-12-04T06:24:28.234944",
        "meta_mean_motion": 1.00271134,
        "meta_eccentricity": 0.00029567,
        "meta_inclination": 0.0258,
        "meta_ra_of_asc_node": 212.498,
        "meta_arg_of_pericenter": 43.457,
        "meta_mean_anomaly": 174.4974,
        "meta_ephemeris_type": 0,
        "meta_classification_type": "U",
        "meta_norad_cat_id": 29236,
        "meta_element_set_no": 999,
        "meta_rev_at_epoch": 7101,
        "meta_bstar": 0,
        "meta_mean_motion_dot": -1.11e-06,
        "meta_mean_motion_ddot": 0,
        "tle_line1": "1 29236U 06023A   25338.26699346 -.00000111  00000+0  00000+0 0  9991",
        "tle_line2": "2 29236   0.0258 212.4980 0002956  43.4570 174.4974  1.00271134 71014"
      },
      "geometry": {
        "type": "Point",
        "coordinates": [
          -91.64158058651371,
          -0.0058819527362753265
        ]
      }
    },
    {
      "type": "Feature",
      "properties": {
        "norad_id": 29494,
        "name": "DIRECTV 9S",
        "group": "intelsat",
        "lat": -0.12044216625415669,
        "lon": -93.83670851639542,
        "alt_km": 35773.09031599174,
        "timestamp": "2025-12-04T19:33:59.298657+00:00",
        "meta_object_name": "DIRECTV 9S",
        "meta_object_id": "2006-043A",
        "meta_epoch": "2025-12-04T06:23:50.795232",
        "meta_mean_motion": 1.00270534,
        "meta_eccentricity": 0.00032372,
        "meta_inclination": 1.9168,
        "meta_ra_of_asc_node": 83.3004,
        "meta_arg_of_pericenter": 169.838,
        "meta_mean_anomaly": 174.9605,
        "meta_ephemeris_type": 0,
        "meta_classification_type": "U",
        "meta_norad_cat_id": 29494,
        "meta_element_set_no": 999,
        "meta_rev_at_epoch": 4942,
        "meta_bstar": 0,
        "meta_mean_motion_dot": -9.8e-07,
        "meta_mean_motion_ddot": 0,
        "tle_line1": "1 29494U 06043A   25338.26656013 -.00000098  00000+0  00000+0 0  9997",
        "tle_line2": "2 29494   1.9168  83.3004 0003237 169.8380 174.9605  1.00270534 49426"
      },
      "geometry": {
        "type": "Point",
        "coordinates": [
          -93.83670851639542,
          -0.12044216625415669
        ]
      }
    }
  ]
}